{"type":"FeatureCollection","features":[{"type":"Feature","properties":{"Name":"District Administration Office","opening_hour":" 10:00 to 17:00","addr_street":"sahid chowk","website":" ","wheelchair":" ","addr_place":" ","email":" ","fax":" ","phone":" ","amenity":"office","operator":"government"},"geometry":{"type":"Point","coordinates":[83.96997135,28.20239864]}},{"type":"Feature","properties":{"Name":"Immigration Office","opening_hour":" 10:00 to 17:00","addr_street":"sahid chowk","website":" ","wheelchair":" ","addr_place":" ","email":" ","fax":" ","phone":" ","amenity":"office","operator":"government"},"geometry":{"type":"Point","coordinates":[83.96954415,28.20179696]}},{"type":"Feature","properties":{"Name":"Pokhara Valley City Development Committee","opening_hour":" 10:00 to 17:00","addr_street":" ","website":" ","wheelchair":" ","addr_place":" ","email":" ","fax":" ","phone":" ","amenity":"office","operator":"government"},"geometry":{"type":"Point","coordinates":[83.96901124,28.20168947]}},{"type":"Feature","properties":{"Name":"Western Regional Administration Office","opening_hour":" 10:00 to 17:00","addr_street":"sahid chowk","website":" ","wheelchair":" ","addr_place":" ","email":" ","fax":" ","phone":" ","amenity":"office","operator":"government"},"geometry":{"type":"Point","coordinates":[83.96924704,28.20180522]}},{"type":"Feature","properties":{"Name":"District Statistics office, Kaski","opening_hour":" 10:00 to 17:00","addr_street":" ","website":" ","wheelchair":" ","addr_place":" ","email":" ","fax":" ","phone":" ","amenity":"office","operator":"government"},"geometry":{"type":"Point","coordinates":[83.97252615,28.20208724]}},{"type":"Feature","properties":{"Name":"District Court House","opening_hour":" 10:00 to 17:00","addr_street":" ","website":" ","wheelchair":" ","addr_place":" ","email":" ","fax":" ","phone":" ","amenity":"court house","operator":"government"},"geometry":{"type":"Point","coordinates":[83.96819128,28.2019687]}},{"type":"Feature","properties":{"Name":"District Development Comitee, Kaski","opening_hour":" 10:00 to 17:00","addr_street":"sahid chowk","website":" ","wheelchair":" ","addr_place":" ","email":" ","fax":" ","phone":" ","amenity":"office","operator":"government"},"geometry":{"type":"Point","coordinates":[83.96918834,28.20222737]}},{"type":"Feature","properties":{"Name":"Office of Standards And Metrology","opening_hour":" 10:00 to 17:00","addr_street":" ","website":" ","wheelchair":" ","addr_place":" ","email":" ","fax":" ","phone":" ","amenity":"office","operator":"government"},"geometry":{"type":"Point","coordinates":[83.96925063,28.20392648]}},{"type":"Feature","properties":{"Name":"Reiginal Monitoring Office","opening_hour":" 10:00 to 17:00","addr_street":" ","website":" ","wheelchair":" ","addr_place":" ","email":" ","fax":" ","phone":" ","amenity":"office","operator":"government"},"geometry":{"type":"Point","coordinates":[83.96874231,28.20389694]}},{"type":"Feature","properties":{"Name":"Ward Office - Ward no 16","opening_hour":" 10:00 to 17:00","addr_street":"maidan","website":" ","wheelchair":" ","addr_place":" ","email":" ","fax":" ","phone":" ","amenity":"office","operator":"government"},"geometry":{"type":"Point","coordinates":[83.97896876,28.26353383]}},{"type":"Feature","properties":{"Name":"District Education Office","opening_hour":" 10:00 to 17:00","addr_street":"bagar","website":" ","wheelchair":" ","addr_place":" ","email":" ","fax":" ","phone":" ","amenity":"office","operator":"government"},"geometry":{"type":"Point","coordinates":[83.98779905,28.24345906]}},{"type":"Feature","properties":{"Name":"Pokhara Sub-Metropolitan Office","opening_hour":" 10:00 to 17:00","addr_street":"newroad","website":" ","wheelchair":" ","addr_place":" ","email":" ","fax":" ","phone":" ","amenity":"office","operator":"government"},"geometry":{"type":"Point","coordinates":[83.986045,28.21790932]}},{"type":"Feature","properties":{"Name":"District Land Revenue Office","opening_hour":" 10:00 to 17:00","addr_street":"sahid chowk","website":" ","wheelchair":" ","addr_place":" ","email":" ","fax":" ","phone":" ","amenity":"office","operator":"government"},"geometry":{"type":"Point","coordinates":[83.96928243,28.20447643]}},{"type":"Feature","properties":{"Name":"District Survey Office Kaski","opening_hour":" 10:00 to 17:00","addr_street":"sahid chowk","website":" ","wheelchair":" ","addr_place":" ","email":" ","fax":" ","phone":" ","amenity":"office","operator":"government"},"geometry":{"type":"Point","coordinates":[83.96926632,28.20488457]}},{"type":"Feature","properties":{"Name":"Ward Office - Ward No. 8","opening_hour":" 10:00 to 17:00","addr_street":"","website":" ","wheelchair":" ","addr_place":" ","email":" ","fax":" ","phone":" ","amenity":"office","operator":"government"},"geometry":{"type":"Point","coordinates":[83.98113593,28.21096235]}},{"type":"Feature","properties":{"Name":"District Forest Office","opening_hour":" 10:00 to 17:00","addr_street":"bagar","website":" ","wheelchair":" ","addr_place":" ","email":" ","fax":" ","phone":" ","amenity":"office","operator":"government"},"geometry":{"type":"Point","coordinates":[83.98699194,28.24289833]}},{"type":"Feature","properties":{"Name":"Ward Office - Ward no 3","opening_hour":" 10:00 to 17:00","addr_street":" ","website":" ","wheelchair":" ","addr_place":" ","email":" ","fax":" ","phone":" ","amenity":"office","operator":"government"},"geometry":{"type":"Point","coordinates":[83.9906968,28.2293247]}},{"type":"Feature","properties":{"Name":"APF Brgadiar Accomodation","opening_hour":" 10:00 to 17:00","addr_street":" ","website":" ","wheelchair":" ","addr_place":" ","email":" ","fax":" ","phone":" ","amenity":"government quater","operator":"government"},"geometry":{"type":"Point","coordinates":[83.97230948,28.20492246]}},{"type":"Feature","properties":{"Name":"Ward Office - Ward no. 6","opening_hour":" 10:00 to 17:00","addr_street":"Dikopatan","website":" ","wheelchair":" ","addr_place":" ","email":" ","fax":" ","phone":" ","amenity":"office","operator":"government"},"geometry":{"type":"Point","coordinates":[83.96246491,28.20963718]}},{"type":"Feature","properties":{"Name":"Regional Police Office","opening_hour":" 10:00 to 17:00","addr_street":"","website":" ","wheelchair":" ","addr_place":" ","email":" ","fax":" ","phone":" ","amenity":"office","operator":"government"},"geometry":{"type":"Point","coordinates":[83.97185335,28.20560786]}},{"type":"Feature","properties":{"Name":"Karmachari Sanchay Kosh","opening_hour":" 10:00 to 17:00","addr_street":"Prithivi Chowk","website":" ","wheelchair":" ","addr_place":" ","email":" ","fax":" ","phone":" ","amenity":"office","operator":"government"},"geometry":{"type":"Point","coordinates":[83.98762368,28.21163014]}},{"type":"Feature","properties":{"Name":"Regional NID office","opening_hour":" 10:00 to 17:00","addr_street":" ","website":" ","wheelchair":" ","addr_place":" ","email":" ","fax":" ","phone":" ","amenity":"office","operator":"government"},"geometry":{"type":"Point","coordinates":[83.97296395,28.20529626]}},{"type":"Feature","properties":{"Name":"Ward Office - Ward no. 14","opening_hour":" 10:00 to 17:00","addr_street":" ","website":" ","wheelchair":" ","addr_place":" ","email":" ","fax":" ","phone":" ","amenity":"office","operator":"government"},"geometry":{"type":"Point","coordinates":[84.02291354,28.1781623]}},{"type":"Feature","properties":{"Name":"District Public Health Office","opening_hour":" 10:00 to 17:00","addr_street":"Hospital Chowk","website":" ","wheelchair":" ","addr_place":" ","email":" ","fax":" ","phone":" ","amenity":"office","operator":"government"},"geometry":{"type":"Point","coordinates":[83.99772914,28.21517178]}},{"type":"Feature","properties":{"Name":"Regional Agricultural Training Center","opening_hour":" 10:00 to 17:00","addr_street":" ","website":" ","wheelchair":" ","addr_place":" ","email":" ","fax":" ","phone":" ","amenity":"office","operator":"government"},"geometry":{"type":"Point","coordinates":[83.99569136,28.21665219]}},{"type":"Feature","properties":{"Name":"Ward Office - Ward no. 9","opening_hour":" 10:00 to 17:00","addr_street":"Nayabazar","website":" ","wheelchair":" ","addr_place":" ","email":" ","fax":" ","phone":" ","amenity":"office","operator":"government"},"geometry":{"type":"Point","coordinates":[83.99182942,28.21932028]}},{"type":"Feature","properties":{"Name":"Regional Directorate of Livestock Services Training Center","opening_hour":" 10:00 to 17:00","addr_street":"Masbar","website":" ","wheelchair":" ","addr_place":" ","email":" ","fax":" ","phone":" ","amenity":"office","operator":"government"},"geometry":{"type":"Point","coordinates":[84.00081958,28.21270892]}},{"type":"Feature","properties":{"Name":"District Livestock Service Office","opening_hour":" 10:00 to 17:00","addr_street":"Hospital Chowk","website":" ","wheelchair":" ","addr_place":" ","email":" ","fax":" ","phone":" ","amenity":"office","operator":"government"},"geometry":{"type":"Point","coordinates":[84.00128785,28.212948]}},{"type":"Feature","properties":{"Name":"Ward Ofice (Ward No. 5)","opening_hour":" 10:00 to 17:00","addr_street":"Malepatan","website":" ","wheelchair":" ","addr_place":" ","email":" ","fax":" ","phone":" ","amenity":"office","operator":"government"},"geometry":{"type":"Point","coordinates":[83.97687436,28.21829089]}},{"type":"Feature","properties":{"Name":"Nagar Swasthya Kendra (Ward No. 5)","opening_hour":" 10:00 to 17:00","addr_street":"Bagar","website":" ","wheelchair":" ","addr_place":" ","email":" ","fax":" ","phone":" ","amenity":"office","operator":"government"},"geometry":{"type":"Point","coordinates":[83.976516,28.21793847]}},{"type":"Feature","properties":{"Name":"Commission for Investigation of Abuse and Authority, Western Regional Office","opening_hour":" 10:00 to 17:00","addr_street":"Nayabazar","website":" ","wheelchair":" ","addr_place":" ","email":" ","fax":" ","phone":" ","amenity":"office","operator":"government"},"geometry":{"type":"Point","coordinates":[83.99063936,28.21930883]}},{"type":"Feature","properties":{"Name":"Kshetriya Krishi Nirdeshanalaya","opening_hour":" 10:00 to 17:00","addr_street":"Malepatan","website":" ","wheelchair":" ","addr_place":" ","email":" ","fax":" ","phone":" ","amenity":"office","operator":"government"},"geometry":{"type":"Point","coordinates":[83.9802973,28.21808234]}},{"type":"Feature","properties":{"Name":"Ward Office - Ward No. 4","opening_hour":" 10:00 to 17:00","addr_street":" ","website":" ","wheelchair":" ","addr_place":" ","email":" ","fax":" ","phone":" ","amenity":"office","operator":"government"},"geometry":{"type":"Point","coordinates":[83.98490784,28.22711483]}},{"type":"Feature","properties":{"Name":"Krishi Sewa Kendra, Pokhara","opening_hour":" 10:00 to 17:00","addr_street":" ","website":" ","wheelchair":" ","addr_place":" ","email":" ","fax":" ","phone":" ","amenity":"office","operator":"government"},"geometry":{"type":"Point","coordinates":[83.97719579,28.21688735]}},{"type":"Feature","properties":{"Name":"Co-operative Training And Division Office","opening_hour":" 10:00 to 17:00","addr_street":" ","website":" ","wheelchair":" ","addr_place":" ","email":" ","fax":" ","phone":" ","amenity":"office","operator":"government"},"geometry":{"type":"Point","coordinates":[83.96959057,28.20327081]}},{"type":"Feature","properties":{"Name":"Animal Reproductive Health Center","opening_hour":" 10:00 to 17:00","addr_street":" ","website":" ","wheelchair":" ","addr_place":" ","email":" ","fax":" ","phone":" ","amenity":"office","operator":"government"},"geometry":{"type":"Point","coordinates":[83.92397836,28.19926163]}},{"type":"Feature","properties":{"Name":"Ward Office - Ward no. 17","opening_hour":" 10:00 to 17:00","addr_street":" ","website":" ","wheelchair":" ","addr_place":" ","email":" ","fax":" ","phone":" ","amenity":"office","operator":"government"},"geometry":{"type":"Point","coordinates":[83.9674992,28.19130895]}},{"type":"Feature","properties":{"Name":"Ward Office - Ward no 2","opening_hour":" 10:00 to 17:00","addr_street":"Miruwa","website":" ","wheelchair":" ","addr_place":" ","email":" ","fax":" ","phone":" ","amenity":"office","operator":"government"},"geometry":{"type":"Point","coordinates":[83.98244443,28.23848006]}},{"type":"Feature","properties":{"Name":"Ward Office - Ward no. 27","opening_hour":" 10:00 to 17:00","addr_street":"Milanchowk","website":" ","wheelchair":" ","addr_place":" ","email":" ","fax":" ","phone":" ","amenity":"office","operator":"government"},"geometry":{"type":"Point","coordinates":[83.9500345,28.27001135]}},{"type":"Feature","properties":{"Name":"Ward Office - Ward no. 29","opening_hour":" 10:00 to 17:00","addr_street":"Milanchowk","website":" ","wheelchair":" ","addr_place":" ","email":" ","fax":" ","phone":" ","amenity":"office","operator":"government"},"geometry":{"type":"Point","coordinates":[83.93258312,28.27864552]}},{"type":"Feature","properties":{"Name":"Ward office - Ward no 19","opening_hour":" 10:00 to 17:00","addr_street":" ","website":" ","wheelchair":" ","addr_place":" ","email":" ","fax":" ","phone":" ","amenity":"office","operator":"government"},"geometry":{"type":"Point","coordinates":[83.96717448,28.26587287]}},{"type":"Feature","properties":{"Name":"Ward Office - Ward no 1","opening_hour":" 10:00 to 17:00","addr_street":"Harichowk","website":" ","wheelchair":" ","addr_place":" ","email":" ","fax":" ","phone":" ","amenity":"office","operator":"government"},"geometry":{"type":"Point","coordinates":[83.9863489,28.2417211]}},{"type":"Feature","properties":{"Name":"Ward Office - Ward no. 18","opening_hour":" 10:00 to 17:00","addr_street":" ","website":" ","wheelchair":" ","addr_place":" ","email":" ","fax":" ","phone":" ","amenity":"office","operator":"government"},"geometry":{"type":"Point","coordinates":[84.01364797,28.1815809]}},{"type":"Feature","properties":{"Name":"Department of Water Supply And Sanitation, Regional Office For Investigation And Supervision","opening_hour":" 10:00 to 17:00","addr_street":" ","website":" ","wheelchair":" ","addr_place":" ","email":" ","fax":" ","phone":" ","amenity":"office","operator":"government"},"geometry":{"type":"Point","coordinates":[83.96869465,28.20403513]}},{"type":"Feature","properties":{"Name":"Reiginal Education Directorate","opening_hour":" 10:00 to 17:00","addr_street":" ","website":" ","wheelchair":" ","addr_place":" ","email":" ","fax":" ","phone":" ","amenity":"office","operator":"government"},"geometry":{"type":"Point","coordinates":[83.96884633,28.20341721]}},{"type":"Feature","properties":{"Name":"Western Postal Directorate","opening_hour":" 10:00 to 17:00","addr_street":" ","website":" ","wheelchair":" ","addr_place":" ","email":" ","fax":" ","phone":" ","amenity":"office","operator":"government"},"geometry":{"type":"Point","coordinates":[83.96928685,28.20348653]}},{"type":"Feature","properties":{"Name":"District Co-operative Union Ltd","opening_hour":" 10:00 to 17:00","addr_street":" ","website":" ","wheelchair":" ","addr_place":" ","email":" ","fax":" ","phone":" ","amenity":"office","operator":"government"},"geometry":{"type":"Point","coordinates":[83.9696777,28.20300159]}},{"type":"Feature","properties":{"Name":"Kaski District Court","opening_hour":" 10:00 to 17:00","addr_street":"Baidam","website":" ","wheelchair":" ","addr_place":" ","email":" ","fax":" ","phone":" ","amenity":"office","operator":"government"},"geometry":{"type":"Point","coordinates":[83.96824112,28.20185412]}},{"type":"Feature","properties":{"Name":"District Land Conservation Office","opening_hour":" 10:00 to 17:00","addr_street":" ","website":" ","wheelchair":" ","addr_place":" ","email":" ","fax":" ","phone":" ","amenity":"office","operator":"government"},"geometry":{"type":"Point","coordinates":[83.97321405,28.20578757]}},{"type":"Feature","properties":{"Name":"Division Road Office","opening_hour":" 10:00 to 17:00","addr_street":"Ratnachowk","website":" ","wheelchair":" ","addr_place":" ","email":" ","fax":" ","phone":" ","amenity":"office","operator":"government"},"geometry":{"type":"Point","coordinates":[83.97289966,28.20385622]}},{"type":"Feature","properties":{"Name":"Heavy Equipment Division","opening_hour":" 10:00 to 17:00","addr_street":" ","website":" ","wheelchair":" ","addr_place":" ","email":" ","fax":" ","phone":" ","amenity":"office","operator":"government"},"geometry":{"type":"Point","coordinates":[83.97197003,28.20338706]}},{"type":"Feature","properties":{"Name":"Western Regional Road Office","opening_hour":" 10:00 to 17:00","addr_street":" ","website":" ","wheelchair":" ","addr_place":" ","email":" ","fax":" ","phone":" ","amenity":"office","operator":"government"},"geometry":{"type":"Point","coordinates":[83.97166911,28.20217179]}},{"type":"Feature","properties":{"Name":"Public Service Commission (Western Regional Directorate)","opening_hour":" 10:00 to 17:00","addr_street":" ","website":" ","wheelchair":" ","addr_place":" ","email":" ","fax":" ","phone":" ","amenity":"office","operator":"government"},"geometry":{"type":"Point","coordinates":[83.9728855,28.20048637]}},{"type":"Feature","properties":{"Name":"Punarabedan Adalat (Repeal Court)","opening_hour":" 10:00 to 17:00","addr_street":" ","website":" ","wheelchair":" ","addr_place":" ","email":" ","fax":" ","phone":" ","amenity":"court house","operator":"government"},"geometry":{"type":"Point","coordinates":[83.97337478,28.20014924]}},{"type":"Feature","properties":{"Name":"Regional Election Office","opening_hour":" 10:00 to 17:00","addr_street":" ","website":" ","wheelchair":" ","addr_place":" ","email":" ","fax":" ","phone":" ","amenity":"office","operator":"government"},"geometry":{"type":"Point","coordinates":[83.97392183,28.20052396]}},{"type":"Feature","properties":{"Name":"Yatayat Office","opening_hour":" 10:00 to 17:00","addr_street":"Prithivi Chowk","website":" ","wheelchair":" ","addr_place":" ","email":" ","fax":" ","phone":" ","amenity":"office","operator":"government"},"geometry":{"type":"Point","coordinates":[83.97153904,28.19527823]}},{"type":"Feature","properties":{"Name":"Nagar Bikash Tatha Prasikshan Kendra","opening_hour":" 10:00 to 17:00","addr_street":"bagar","website":" ","wheelchair":" ","addr_place":" ","email":" ","fax":" ","phone":" ","amenity":"office","operator":"government"},"geometry":{"type":"Point","coordinates":[83.98816971,28.23726145]}},{"type":"Feature","properties":{"Name":"Ward Office - Ward no. 12","opening_hour":" 10:00 to 17:00","addr_street":"Matepani","website":" ","wheelchair":" ","addr_place":" ","email":" ","fax":" ","phone":" ","amenity":"office","operator":"government"},"geometry":{"type":"Point","coordinates":[84.00367847,28.21548358]}},{"type":"Feature","properties":{"Name":"Ward Office - Ward no. 13","opening_hour":" 10:00 to 17:00","addr_street":"Bajaptan","website":" ","wheelchair":" ","addr_place":" ","email":" ","fax":" ","phone":" ","amenity":"office","operator":"government"},"geometry":{"type":"Point","coordinates":[84.01176266,28.21177934]}},{"type":"Feature","properties":{"Name":"Ward Office - Ward No 20","opening_hour":" 10:00 to 17:00","addr_street":"Valam","website":" ","wheelchair":" ","addr_place":" ","email":" ","fax":" ","phone":" ","amenity":"office","operator":"government"},"geometry":{"type":"Point","coordinates":[84.0094417,28.2547157]}},{"type":"Feature","properties":{"Name":"Ward Office - Ward No 21","opening_hour":" 10:00 to 17:00","addr_street":" ","website":" ","wheelchair":" ","addr_place":" ","email":" ","fax":" ","phone":" ","amenity":"office","operator":"government"},"geometry":{"type":"Point","coordinates":[84.01199757,28.23105737]}},{"type":"Feature","properties":{"Name":"Ward Office - Ward no. 7","opening_hour":" 10:00 to 17:00","addr_street":" ","website":" ","wheelchair":" ","addr_place":" ","email":" ","fax":" ","phone":" ","amenity":"office","operator":"government"},"geometry":{"type":"Point","coordinates":[83.97489584,28.20547698]}},{"type":"Feature","properties":{"Name":"Ward Office - Ward no. 15","opening_hour":" 10:00 to 17:00","addr_street":"Kolpatan","website":" ","wheelchair":" ","addr_place":" ","email":" ","fax":" ","phone":" ","amenity":"office","operator":"government"},"geometry":{"type":"Point","coordinates":[83.99627222,28.1948103]}},{"type":"Feature","properties":{"Name":"Ward Office - Ward no. 10","opening_hour":" 10:00 to 17:00","addr_street":" ","website":" ","wheelchair":" ","addr_place":" ","email":" ","fax":" ","phone":" ","amenity":"office","operator":"government"},"geometry":{"type":"Point","coordinates":[84.00070957,28.20280721]}},{"type":"Feature","properties":{"Name":"Ward Office - Ward No 26","opening_hour":" 10:00 to 17:00","addr_street":" ","website":" ","wheelchair":" ","addr_place":" ","email":" ","fax":" ","phone":" ","amenity":"office","operator":"government"},"geometry":{"type":"Point","coordinates":[83.97684683,28.24227967]}},{"type":"Feature","properties":{"Name":"Ward Office - Ward No. 11","opening_hour":" 10:00 to 17:00","addr_street":"CTEVT Chowk","website":" ","wheelchair":" ","addr_place":" ","email":" ","fax":" ","phone":" ","amenity":"office","operator":"government"},"geometry":{"type":"Point","coordinates":[83.99935016,28.22189198]}},{"type":"Feature","properties":{"Name":"Office of the Nepal Trust, Pokhara","opening_hour":" 10:00 to 17:00","addr_street":" ","website":" ","wheelchair":" ","addr_place":" ","email":" ","fax":" ","phone":" ","amenity":"office","operator":"government"},"geometry":{"type":"Point","coordinates":[83.9603051,28.2061352]}},{"type":"Feature","properties":{"Name":"Rastriya Gramid Tatha Nabikaran Urja Kendra","opening_hour":" 10:00 to 17:00","addr_street":" ","website":" ","wheelchair":" ","addr_place":" ","email":" ","fax":" ","phone":" ","amenity":"office","operator":"government"},"geometry":{"type":"Point","coordinates":[83.9850889,28.2375709]}},{"type":"Feature","properties":{"Name":"District Agro Cooperative Association","opening_hour":" 10:00 to 17:00","addr_street":" ","website":" ","wheelchair":" ","addr_place":" ","email":" ","fax":" ","phone":" ","amenity":"office","operator":"government"},"geometry":{"type":"Point","coordinates":[84.0024612,28.2041047]}},{"type":"Feature","properties":{"Name":"Krishi Sewa Kendra","opening_hour":" 10:00 to 17:00","addr_street":" ","website":" ","wheelchair":" ","addr_place":" ","email":" ","fax":" ","phone":" ","amenity":"office","operator":"government"},"geometry":{"type":"Point","coordinates":[84.0046055,28.250508]}},{"type":"Feature","properties":{"Name":"Nepal Water Corporation Office","opening_hour":" 10:00 to 17:00","addr_street":"Bindabasini","website":" ","wheelchair":" ","addr_place":" ","email":" ","fax":" ","phone":" ","amenity":"office","operator":"government"},"geometry":{"type":"Point","coordinates":[83.9325704,28.2785768]}}]}